CTC1_L_00282001-01
1 86918U 25196MO  26037.47804398  .00000000  00000+0  00000-0 0  9995
2 86918  45.0000   0.0000 0000000   0.0000   0.0000 15.18623352    10
CTC1_L_00282001-02
1 86919U 24611OW  26037.47804398  .00000000  00000+0  00000-0 0  9997
2 86919  45.0000   0.0000 0000000   0.0000  90.0000 15.18623352    10
CTC1_L_00282001-03
1 86920U 26294IL  26037.47804398  .00000000  00000+0  00000-0 0  9998
2 86920  45.0000   0.0000 0000000   0.0000 180.0000 15.18623352    12
CTC1_L_00282001-04
1 86921U 26499EN  26037.47804398  .00000000  00000+0  00000-0 0  9996
2 86921  45.0000   0.0000 0000000   0.0000 270.0000 15.18623352    13
CTC1_L_00282002-01
1 86922U 25755XN  26037.47804398  .00000000  00000+0  00000-0 0  9991
2 86922  45.0000  12.0000 0000000   0.0000  12.0000 15.18623352    11
CTC1_L_00282002-02
1 86923U 23370NQ  26037.47804398  .00000000  00000+0  00000-0 0  9993
2 86923  45.0000  12.0000 0000000   0.0000 102.0000 15.18623352    12
CTC1_L_00282002-03
1 86924U 23886JP  26037.47804398  .00000000  00000+0  00000-0 0  9996
2 86924  45.0000  12.0000 0000000   0.0000 192.0000 15.18623352    12
CTC1_L_00282002-04
1 86925U 25203JL  26037.47804398  .00000000  00000+0  00000-0 0  9992
2 86925  45.0000  12.0000 0000000   0.0000 282.0000 15.18623352    13
CTC1_L_00282003-01
1 86926U 26381OE  26037.47804398  .00000000  00000+0  00000-0 0  9991
2 86926  45.0000  24.0000 0000000   0.0000  24.0000 15.18623352    11
CTC1_L_00282003-02
1 86927U 22625BS  26037.47804398  .00000000  00000+0  00000-0 0  9999
2 86927  45.0000  24.0000 0000000   0.0000 114.0000 15.18623352    12
CTC1_L_00282003-03
1 86928U 26236KY  26037.47804398  .00000000  00000+0  00000-0 0  9992
2 86928  45.0000  24.0000 0000000   0.0000 204.0000 15.18623352    13
CTC1_L_00282003-04
1 86929U 25996UK  26037.47804398  .00000000  00000+0  00000-0 0  9995
2 86929  45.0000  24.0000 0000000   0.0000 294.0000 15.18623352    13
CTC1_L_00282004-01
1 86930U 26414RB  26037.47804398  .00000000  00000+0  00000-0 0  9993
2 86930  45.0000  36.0000 0000000   0.0000  36.0000 15.18623352    12
CTC1_L_00282004-02
1 86931U 23287QC  26037.47804398  .00000000  00000+0  00000-0 0  9999
2 86931  45.0000  36.0000 0000000   0.0000 126.0000 15.18623352    13
CTC1_L_00282004-03
1 86932U 23664LH  26037.47804398  .00000000  00000+0  00000-0 0  9999
2 86932  45.0000  36.0000 0000000   0.0000 216.0000 15.18623352    14
CTC1_L_00282004-04
1 86933U 23485TK  26037.47804398  .00000000  00000+0  00000-0 0  9991
2 86933  45.0000  36.0000 0000000   0.0000 306.0000 15.18623352    15
CTC1_L_00282005-01
1 86934U 25339BG  26037.47804398  .00000000  00000+0  00000-0 0  9992
2 86934  45.0000  48.0000 0000000   0.0000  48.0000 15.18623352    12
CTC1_L_00282005-02
1 86935U 23030NO  26037.47804398  .00000000  00000+0  00000-0 0  9999
2 86935  45.0000  48.0000 0000000   0.0000 138.0000 15.18623352    13
CTC1_L_00282005-03
1 86936U 22051MD  26037.47804398  .00000000  00000+0  00000-0 0  9992
2 86936  45.0000  48.0000 0000000   0.0000 228.0000 15.18623352    14
CTC1_L_00282005-04
1 86937U 23490SG  26037.47804398  .00000000  00000+0  00000-0 0  9991
2 86937  45.0000  48.0000 0000000   0.0000 318.0000 15.18623352    15
CTC1_L_00282006-01
1 86938U 26896VU  26037.47804398  .00000000  00000+0  00000-0 0  9995
2 86938  45.0000  60.0000 0000000   0.0000  60.0000 15.18623352    14
CTC1_L_00282006-02
1 86939U 22135VA  26037.47804398  .00000000  00000+0  00000-0 0  9998
2 86939  45.0000  60.0000 0000000   0.0000 150.0000 15.18623352    15
CTC1_L_00282006-03
1 86940U 26752EU  26037.47804398  .00000000  00000+0  00000-0 0  9999
2 86940  45.0000  60.0000 0000000   0.0000 240.0000 15.18623352    17
CTC1_L_00282006-04
1 86941U 23555WJ  26037.47804398  .00000000  00000+0  00000-0 0  9998
2 86941  45.0000  60.0000 0000000   0.0000 330.0000 15.18623352    18
CTC1_L_00282007-01
1 86942U 23610TU  26037.47804398  .00000000  00000+0  00000-0 0  9991
2 86942  45.0000  72.0000 0000000   0.0000  72.0000 15.18623352    15
CTC1_L_00282007-02
1 86943U 23496J   26037.47804398  .00000000  00000+0  00000-0 0  9994
2 86943  45.0000  72.0000 0000000   0.0000 162.0000 15.18623352    16
CTC1_L_00282007-03
1 86944U 23394OX  26037.47804398  .00000000  00000+0  00000-0 0  9992
2 86944  45.0000  72.0000 0000000   0.0000 252.0000 15.18623352    17
CTC1_L_00282007-04
1 86945U 24144QR  26037.47804398  .00000000  00000+0  00000-0 0  9997
2 86945  45.0000  72.0000 0000000   0.0000 342.0000 15.18623352    18
CTC1_L_00282008-01
1 86946U 24607SZ  26037.47804398  .00000000  00000+0  00000-0 0  9992
2 86946  45.0000  84.0000 0000000   0.0000  84.0000 15.18623352    15
CTC1_L_00282008-02
1 86947U 23867LD  26037.47804398  .00000000  00000+0  00000-0 0  9990
2 86947  45.0000  84.0000 0000000   0.0000 174.0000 15.18623352    16
CTC1_L_00282008-03
1 86948U 24894AF  26037.47804398  .00000000  00000+0  00000-0 0  9992
2 86948  45.0000  84.0000 0000000   0.0000 264.0000 15.18623352    17
CTC1_L_00282008-04
1 86949U 26884PY  26037.47804398  .00000000  00000+0  00000-0 0  9994
2 86949  45.0000  84.0000 0000000   0.0000 354.0000 15.18623352    18
CTC1_L_00282009-01
1 86950U 26558YW  26037.47804398  .00000000  00000+0  00000-0 0  9994
2 86950  45.0000  96.0000 0000000   0.0000  96.0000 15.18623352    16
CTC1_L_00282009-02
1 86951U 26475LJ  26037.47804398  .00000000  00000+0  00000-0 0  9993
2 86951  45.0000  96.0000 0000000   0.0000 186.0000 15.18623352    17
CTC1_L_00282009-03
1 86952U 26011AN  26037.47804398  .00000000  00000+0  00000-0 0  9990
2 86952  45.0000  96.0000 0000000   0.0000 276.0000 15.18623352    18
CTC1_L_00282009-04
1 86953U 24199E   26037.47804398  .00000000  00000+0  00000-0 0  9996
2 86953  45.0000  96.0000 0000000   0.0000   6.0000 15.18623352    10
CTC1_L_00282010-01
1 86954U 22166CO  26037.47804398  .00000000  00000+0  00000-0 0  9999
2 86954  45.0000 108.0000 0000000   0.0000 108.0000 15.18623352    18
CTC1_L_00282010-02
1 86955U 24889NW  26037.47804398  .00000000  00000+0  00000-0 0  9994
2 86955  45.0000 108.0000 0000000   0.0000 198.0000 15.18623352    18
CTC1_L_00282010-03
1 86956U 26731WI  26037.47804398  .00000000  00000+0  00000-0 0  9993
2 86956  45.0000 108.0000 0000000   0.0000 288.0000 15.18623352    19
CTC1_L_00282010-04
1 86957U 23942EV  26037.47804398  .00000000  00000+0  00000-0 0  9995
2 86957  45.0000 108.0000 0000000   0.0000  18.0000 15.18623352    11
CTC1_L_00282011-01
1 86958U 24129NU  26037.47804398  .00000000  00000+0  00000-0 0  9994
2 86958  45.0000 120.0000 0000000   0.0000 120.0000 15.18623352    10
CTC1_L_00282011-02
1 86959U 26311VM  26037.47804398  .00000000  00000+0  00000-0 0  9990
2 86959  45.0000 120.0000 0000000   0.0000 210.0000 15.18623352    11
CTC1_L_00282011-03
1 86960U 23892YD  26037.47804398  .00000000  00000+0  00000-0 0  9993
2 86960  45.0000 120.0000 0000000   0.0000 300.0000 15.18623352    13
CTC1_L_00282011-04
1 86961U 23040IL  26037.47804398  .00000000  00000+0  00000-0 0  9999
2 86961  45.0000 120.0000 0000000   0.0000  30.0000 15.18623352    14
CTC1_L_00282012-01
1 86962U 24848SI  26037.47804398  .00000000  00000+0  00000-0 0  9997
2 86962  45.0000 132.0000 0000000   0.0000 132.0000 15.18623352    11
CTC1_L_00282012-02
1 86963U 25747KA  26037.47804398  .00000000  00000+0  00000-0 0  9997
2 86963  45.0000 132.0000 0000000   0.0000 222.0000 15.18623352    12
CTC1_L_00282012-03
1 86964U 22613FK  26037.47804398  .00000000  00000+0  00000-0 0  9997
2 86964  45.0000 132.0000 0000000   0.0000 312.0000 15.18623352    13
CTC1_L_00282012-04
1 86965U 26198HA  26037.47804398  .00000000  00000+0  00000-0 0  9990
2 86965  45.0000 132.0000 0000000   0.0000  42.0000 15.18623352    14
CTC1_L_00282013-01
1 86966U 26856FO  26037.47804398  .00000000  00000+0  00000-0 0  9992
2 86966  45.0000 144.0000 0000000   0.0000 144.0000 15.18623352    11
CTC1_L_00282013-02
1 86967U 23459TM  26037.47804398  .00000000  00000+0  00000-0 0  9999
2 86967  45.0000 144.0000 0000000   0.0000 234.0000 15.18623352    12
CTC1_L_00282013-03
1 86968U 24827KY  26037.47804398  .00000000  00000+0  00000-0 0  9990
2 86968  45.0000 144.0000 0000000   0.0000 324.0000 15.18623352    13
CTC1_L_00282013-04
1 86969U 25797D   26037.47804398  .00000000  00000+0  00000-0 0  9998
2 86969  45.0000 144.0000 0000000   0.0000  54.0000 15.18623352    14
CTC1_L_00282014-01
1 86970U 22228XD  26037.47804398  .00000000  00000+0  00000-0 0  9996
2 86970  45.0000 156.0000 0000000   0.0000 156.0000 15.18623352    12
CTC1_L_00282014-02
1 86971U 23696PE  26037.47804398  .00000000  00000+0  00000-0 0  9997
2 86971  45.0000 156.0000 0000000   0.0000 246.0000 15.18623352    13
CTC1_L_00282014-03
1 86972U 23902EK  26037.47804398  .00000000  00000+0  00000-0 0  9998
2 86972  45.0000 156.0000 0000000   0.0000 336.0000 15.18623352    14
CTC1_L_00282014-04
1 86973U 25394CJ  26037.47804398  .00000000  00000+0  00000-0 0  9996
2 86973  45.0000 156.0000 0000000   0.0000  66.0000 15.18623352    15
CTC1_L_00282015-01
1 86974U 23242WX  26037.47804398  .00000000  00000+0  00000-0 0  9997
2 86974  45.0000 168.0000 0000000   0.0000 168.0000 15.18623352    12
CTC1_L_00282015-02
1 86975U 23835HF  26037.47804398  .00000000  00000+0  00000-0 0  9996
2 86975  45.0000 168.0000 0000000   0.0000 258.0000 15.18623352    13
CTC1_L_00282015-03
1 86976U 23195GB  26037.47804398  .00000000  00000+0  00000-0 0  9996
2 86976  45.0000 168.0000 0000000   0.0000 348.0000 15.18623352    14
CTC1_L_00282015-04
1 86977U 24860I   26037.47804398  .00000000  00000+0  00000-0 0  9997
2 86977  45.0000 168.0000 0000000   0.0000  78.0000 15.18623352    15
CTC1_L_00282016-01
1 86978U 25260RA  26037.47804398  .00000000  00000+0  00000-0 0  9993
2 86978  45.0000 180.0000 0000000   0.0000 180.0000 15.18623352    14
CTC1_L_00282016-02
1 86979U 22657PE  26037.47804398  .00000000  00000+0  00000-0 0  9991
2 86979  45.0000 180.0000 0000000   0.0000 270.0000 15.18623352    15
